STARLINK-35502          
1 66435U 25259P   25337.33335648 -.00120415  00000+0 -20741-2 0  9992
2 66435  43.0000 102.2962 0001434 268.7284   3.7412 15.50636858  4765
STARLINK-35501          
1 66436U 25259Q   25337.33335648 -.00269995  00000+0 -47305-2 0  9995
2 66436  43.0002 102.2857 0001340 251.3381  24.9254 15.50734390  4762
STARLINK-35474          
1 66437U 25259R   25337.33335648 -.00200457  00000+0 -34839-2 0  9992
2 66437  43.0003 102.2814 0001304 260.0045  18.1643 15.50702320  4766
STARLINK-34681          
1 66438U 25259S   25337.33335648 -.00317962  00000+0 -55984-2 0  9997
2 66438  43.0000 102.2767 0001341 267.5998  12.4789 15.50771367  4665
STARLINK-35327          
1 66439U 25259T   25337.33335648 -.00100367  00000+0 -17253-2 0  9994
2 66439  43.0000 102.2930 0001362 275.7682 358.6459 15.50606807  4768
STARLINK-35405          
1 66440U 25259U   25337.33335648 -.00203122  00000+0 -35321-2 0  9995
2 66440  43.0002 102.2727 0001439 268.2737  13.7479 15.50697163  4765
STARLINK-35426          
1 66441U 25259V   25337.33335648 -.00281991  00000+0 -49462-2 0  9997
2 66441  43.0001 102.2670 0001376 268.0575  15.8656 15.50746631  4765
STARLINK-34724          
1 66442U 25259W   25337.33335648 -.00078580  00000+0 -13459-2 0  9993
2 66442  43.0001 102.2623 0001612 269.6839  16.2278 15.50604089  4762
STARLINK-35219          
1 66443U 25259X   25337.33335648 -.00095762  00000+0 -16441-2 0  9999
2 66443  43.0002 102.2579 0001566 265.0898  22.7295 15.50619227  4667
STARLINK-35360          
1 66444U 25259Y   25337.33335648 -.00295281  00000+0 -51874-2 0  9997
2 66444  43.0001 102.2428 0001477 264.7273  28.7811 15.50751290  4762
STARLINK-34698          
1 66445U 25259Z   25337.33335648 -.00396319  00000+0 -70368-2 0  9991
2 66445  43.0001 102.2524 0001548 264.6384  25.0118 15.50817780  4667
STARLINK-34986          
1 66446U 25259AA  25337.33335648 -.00211458  00000+0 -36805-2 0  9990
2 66446  43.0002 102.2470 0001447 259.6713  31.9325 15.50702010  4763
